EUTELSAT 21B            
1 38992U 12062B   26012.88079291  .00000148  00000+0  00000+0 0  9998
2 38992   0.0743  28.7128 0003154 269.3312 153.0012  1.00273799 48275
EUTELSAT 70B            
1 39020U 12069A   26012.96414018 -.00000025  00000+0  00000+0 0  9992
2 39020   0.0613 356.0776 0003758 272.9801 260.9647  1.00271039 47954
EUTELSAT 117 WEST A     
1 39122U 13012A   26012.92464652  .00000006  00000+0  00000+0 0  9997
2 39122   0.0321 296.7256 0002817   3.6658  28.0682  1.00271618 46875
EUTELSAT 7B             
1 39163U 13022A   26012.94926000  .00000067  00000+0  00000+0 0  9992
2 39163   0.0707 338.0913 0005345 355.0693 128.0106  1.00274253 46397
EXPRESS-AT1             
1 39612U 14010A   26012.95896672  .00000097  00000+0  00000+0 0  9994
2 39612   0.0300 242.0599 0000557 340.1172 291.4897  1.00270670 43260
EXPRESS-AT2             
1 39613U 14010B   26012.90427972 -.00000263  00000+0  00000+0 0  9999
2 39613   0.0142 312.3169 0001664 330.6499 294.8051  1.00271947 42946
EUTELSAT 3B             
1 39773U 14030A   26012.94847999  .00000038  00000+0  00000+0 0  9996
2 39773   0.0600 356.4640 0003366 246.8824 213.6206  1.00271199 42519
EUTELSAT 115 WEST B     
1 40425U 15010B   26012.40679762 -.00000007  00000+0  00000+0 0  9990
2 40425   0.0068 158.5223 0000184 110.3409 234.5687  1.00269701 39832
